{
  "type": "FeatureCollection",
  "features": [
    {
      "type": "Feature",
      "properties": {
        "norad_id": 66462,
        "name": "STARLINK-35499",
        "group": "last-30-days",
        "lat": 8.17460500325215,
        "lon": 118.00286608349514,
        "alt_km": 417.359527137598,
        "timestamp": "2025-12-06T05:40:08.010872+00:00",
        "meta_object_name": "STARLINK-35499",
        "meta_object_id": "2025-262G",
        "meta_epoch": "2025-12-05T06:00:02.000160",
        "meta_mean_motion": 15.51201341,
        "meta_eccentricity": 9.653e-05,
        "meta_inclination": 42.9998,
        "meta_ra_of_asc_node": 114.9015,
        "meta_arg_of_pericenter": 284.7848,
        "meta_mean_anomaly": 337.0325,
        "meta_ephemeris_type": 0,
        "meta_classification_type": "U",
        "meta_norad_cat_id": 66462,
        "meta_element_set_no": 999,
        "meta_rev_at_epoch": 443,
        "meta_bstar": -0.016863567,
        "meta_mean_motion_dot": -0.00929537,
        "meta_mean_motion_ddot": 0,
        "tle_line1": "1 66462U 25262G   25339.25002315 -.00929537  00000+0 -16864-1 0  9993",
        "tle_line2": "2 66462  42.9998 114.9015 0000965 284.7848 337.0325 15.51201341  4436"
      },
      "geometry": {
        "type": "Point",
        "coordinates": [
          118.00286608349514,
          8.17460500325215
        ]
      }
    },
    {
      "type": "Feature",
      "properties": {
        "norad_id": 66463,
        "name": "STARLINK-35463",
        "group": "last-30-days",
        "lat": 10.785872024346727,
        "lon": 120.9212301914589,
        "alt_km": 417.12016429650157,
        "timestamp": "2025-12-06T05:40:08.010882+00:00",
        "meta_object_name": "STARLINK-35463",
        "meta_object_id": "2025-262H",
        "meta_epoch": "2025-12-05T06:00:02.000160",
        "meta_mean_motion": 15.51200767,
        "meta_eccentricity": 0.00011389,
        "meta_inclination": 42.9999,
        "meta_ra_of_asc_node": 114.8913,
        "meta_arg_of_pericenter": 269.6907,
        "meta_mean_anomaly": 355.9567,
        "meta_ephemeris_type": 0,
        "meta_classification_type": "U",
        "meta_norad_cat_id": 66463,
        "meta_element_set_no": 999,
        "meta_rev_at_epoch": 443,
        "meta_bstar": -0.016555116,
        "meta_mean_motion_dot": -0.0091388,
        "meta_mean_motion_ddot": 0,
        "tle_line1": "1 66463U 25262H   25339.25002315 -.00913880  00000+0 -16555-1 0  9995",
        "tle_line2": "2 66463  42.9999 114.8913 0001138 269.6907 355.9567 15.51200767  4433"
      },
      "geometry": {
        "type": "Point",
        "coordinates": [
          120.9212301914589,
          10.785872024346727
        ]
      }
    },
    {
      "type": "Feature",
      "properties": {
        "norad_id": 66464,
        "name": "STARLINK-35435",
        "group": "last-30-days",
        "lat": 9.442958533096084,
        "lon": 119.41166265999358,
        "alt_km": 417.2803269154747,
        "timestamp": "2025-12-06T05:40:08.010895+00:00",
        "meta_object_name": "STARLINK-35435",
        "meta_object_id": "2025-262J",
        "meta_epoch": "2025-12-05T06:00:02.000160",
        "meta_mean_motion": 15.51210143,
        "meta_eccentricity": 9.483e-05,
        "meta_inclination": 43.0001,
        "meta_ra_of_asc_node": 114.8967,
        "meta_arg_of_pericenter": 284.6533,
        "meta_mean_anomaly": 339.0791,
        "meta_ephemeris_type": 0,
        "meta_classification_type": "U",
        "meta_norad_cat_id": 66464,
        "meta_element_set_no": 999,
        "meta_rev_at_epoch": 443,
        "meta_bstar": -0.017159035,
        "meta_mean_motion_dot": -0.00944779,
        "meta_mean_motion_ddot": 0,
        "tle_line1": "1 66464U 25262J   25339.25002315 -.00944779  00000+0 -17159-1 0  9998",
        "tle_line2": "2 66464  43.0001 114.8967 0000948 284.6533 339.0791 15.51210143  4430"
      },
      "geometry": {
        "type": "Point",
        "coordinates": [
          119.41166265999358,
          9.442958533096084
        ]
      }
    },
    {
      "type": "Feature",
      "properties": {
        "norad_id": 66465,
        "name": "STARLINK-35448",
        "group": "last-30-days",
        "lat": 13.354394940048952,
        "lon": 123.87437627477749,
        "alt_km": 417.03709723967495,
        "timestamp": "2025-12-06T05:40:08.010905+00:00",
        "meta_object_name": "STARLINK-35448",
        "meta_object_id": "2025-262K",
        "meta_epoch": "2025-12-05T06:00:02.000160",
        "meta_mean_motion": 15.5117474,
        "meta_eccentricity": 0.00013629,
        "meta_inclination": 42.9999,
        "meta_ra_of_asc_node": 114.882,
        "meta_arg_of_pericenter": 256.4308,
        "meta_mean_anomaly": 13.0743,
        "meta_ephemeris_type": 0,
        "meta_classification_type": "U",
        "meta_norad_cat_id": 66465,
        "meta_element_set_no": 999,
        "meta_rev_at_epoch": 443,
        "meta_bstar": -0.016054459,
        "meta_mean_motion_dot": -0.00875897,
        "meta_mean_motion_ddot": 0,
        "tle_line1": "1 66465U 25262K   25339.25002315 -.00875897  00000+0 -16054-1 0  9996",
        "tle_line2": "2 66465  42.9999 114.8820 0001362 256.4308  13.0743 15.51174740  4439"
      },
      "geometry": {
        "type": "Point",
        "coordinates": [
          123.87437627477749,
          13.354394940048952
        ]
      }
    },
    {
      "type": "Feature",
      "properties": {
        "norad_id": 66466,
        "name": "STARLINK-35388",
        "group": "last-30-days",
        "lat": 14.52944772773921,
        "lon": 125.25767591900279,
        "alt_km": 416.6988591591835,
        "timestamp": "2025-12-06T05:40:08.010917+00:00",
        "meta_object_name": "STARLINK-35388",
        "meta_object_id": "2025-262L",
        "meta_epoch": "2025-12-05T06:00:02.000160",
        "meta_mean_motion": 15.51210787,
        "meta_eccentricity": 8.935e-05,
        "meta_inclination": 43.0001,
        "meta_ra_of_asc_node": 114.8761,
        "meta_arg_of_pericenter": 281.5226,
        "meta_mean_anomaly": 349.8775,
        "meta_ephemeris_type": 0,
        "meta_classification_type": "U",
        "meta_norad_cat_id": 66466,
        "meta_element_set_no": 999,
        "meta_rev_at_epoch": 443,
        "meta_bstar": -0.01719182,
        "meta_mean_motion_dot": -0.00946447,
        "meta_mean_motion_ddot": 0,
        "tle_line1": "1 66466U 25262L   25339.25002315 -.00946447  00000+0 -17192-1 0  9991",
        "tle_line2": "2 66466  43.0001 114.8761 0000893 281.5226 349.8775 15.51210787  4433"
      },
      "geometry": {
        "type": "Point",
        "coordinates": [
          125.25767591900279,
          14.52944772773921
        ]
      }
    },
    {
      "type": "Feature",
      "properties": {
        "norad_id": 66467,
        "name": "STARLINK-35682",
        "group": "last-30-days",
        "lat": 12.048281364498017,
        "lon": 122.36128927387729,
        "alt_km": 417.0797497576232,
        "timestamp": "2025-12-06T05:40:08.010927+00:00",
        "meta_object_name": "STARLINK-35682",
        "meta_object_id": "2025-262M",
        "meta_epoch": "2025-12-05T06:00:02.000160",
        "meta_mean_motion": 15.51204922,
        "meta_eccentricity": 0.00012295,
        "meta_inclination": 43,
        "meta_ra_of_asc_node": 114.8869,
        "meta_arg_of_pericenter": 267.279,
        "meta_mean_anomaly": 0.2878,
        "meta_ephemeris_type": 0,
        "meta_classification_type": "U",
        "meta_norad_cat_id": 66467,
        "meta_element_set_no": 999,
        "meta_rev_at_epoch": 443,
        "meta_bstar": -0.016747347,
        "meta_mean_motion_dot": -0.009238,
        "meta_mean_motion_ddot": 0,
        "tle_line1": "1 66467U 25262M   25339.25002315 -.00923800  00000+0 -16747-1 0  9995",
        "tle_line2": "2 66467  43.0000 114.8869 0001229 267.2790   0.2878 15.51204922  4439"
      },
      "geometry": {
        "type": "Point",
        "coordinates": [
          122.36128927387729,
          12.048281364498017
        ]
      }
    },
    {
      "type": "Feature",
      "properties": {
        "norad_id": 66468,
        "name": "STARLINK-35331",
        "group": "last-30-days",
        "lat": 15.841946621322856,
        "lon": 126.83448961094567,
        "alt_km": 416.4810797404998,
        "timestamp": "2025-12-06T05:40:08.010938+00:00",
        "meta_object_name": "STARLINK-35331",
        "meta_object_id": "2025-262N",
        "meta_epoch": "2025-12-05T06:00:02.000160",
        "meta_mean_motion": 15.51202706,
        "meta_eccentricity": 0.0001105,
        "meta_inclination": 43.0001,
        "meta_ra_of_asc_node": 114.8722,
        "meta_arg_of_pericenter": 269.2091,
        "meta_mean_anomaly": 4.1039,
        "meta_ephemeris_type": 0,
        "meta_classification_type": "U",
        "meta_norad_cat_id": 66468,
        "meta_element_set_no": 999,
        "meta_rev_at_epoch": 443,
        "meta_bstar": -0.016573086,
        "meta_mean_motion_dot": -0.00914847,
        "meta_mean_motion_ddot": 0,
        "tle_line1": "1 66468U 25262N   25339.25002315 -.00914847  00000+0 -16573-1 0  9994",
        "tle_line2": "2 66468  43.0001 114.8722 0001105 269.2091   4.1039 15.51202706  4438"
      },
      "geometry": {
        "type": "Point",
        "coordinates": [
          126.83448961094567,
          15.841946621322856
        ]
      }
    }
  ]
}